ONEWEB-0207             
1 48242C 21031AJ  22333.44150877  .00003139  00000-0  84765-2 0  3336
2 48242  87.9100 187.3385 0001472  71.5932 350.7361 13.14501086    18
ONEWEB-0208             
1 48243C 21031AK  22333.50294397  .00001723  00000-0  46523-2 0  3337
2 48243  87.9094 187.3513 0001980  82.3088  15.7740 13.14500719    11
ONEWEB-0200             
1 48244C 21031AL  22333.23974951 -.00001455  00000-0 -39300-2 0  3338
2 48244  87.9084 187.3986 0002033  82.2499  21.0502 13.14503975    13
ONEWEB-0217             
1 48245C 21031AM  22333.54705276  .00001467  00000-0  39620-2 0  3331
2 48245  87.9088 187.3088 0002107  83.6917 312.9879 13.14497139    16
ONEWEB-0211             
1 48767C 21045A   22333.23838377 -.00001408  00000-0 -37459-2 0  3335
2 48767  87.8966 157.1448 0001856  97.2466 297.5942 13.15545151    12
ONEWEB-0223             
1 48768C 21045B   22333.65883516 -.00004408  00000-0 -11722-1 0  3334
2 48768  87.8980 157.0723 0001943 100.7435  24.1485 13.15556240    14
ONEWEB-0230             
1 48769C 21045C   22333.46368470  .00001703  00000-0  45292-2 0  3334
2 48769  87.8970 157.1242 0001588  95.8731 315.3739 13.15548145    11
ONEWEB-0237             
1 48770C 21045D   22333.69667082 -.00002289  00000-0 -60884-2 0  3338
2 48770  87.9182 157.0269 0001782 111.6670  12.2848 13.15548609    11
ONEWEB-0235             
1 48771C 21045E   22333.42237268  .00002854  00000-0  75900-2 0  3330
2 48771  87.9107 157.1214 0001996 120.8374 274.8258 13.15549189    15
ONEWEB-0242             
1 48772C 21045F   22333.66299026 -.00006613  00000-0 -17587-1 0  3332
2 48772  87.9056 157.0686 0001468 102.0533  22.5767 13.15559033    16
ONEWEB-0241             
1 48773C 21045G   22333.63420553 -.00004532  00000-0 -12054-1 0  3333
2 48773  87.9042 157.0398 0002146  95.7061 312.6278 13.15551682    12
ONEWEB-0243             
1 48774C 21045H   22333.68211064 -.00002545  00000-0 -67687-2 0  3339
2 48774  87.8983 157.0493 0001639 113.1374  11.9356 13.15551240    16
ONEWEB-0222             
1 48775C 21045J   22333.67134674 -.00003413  00000-0 -90771-2 0  3335
2 48775  87.9003 157.0856 0001915  96.4769  27.6116 13.15554731    18
ONEWEB-0244             
1 48776C 21045K   22333.69255045 -.00002231  00000-0 -59349-2 0  3337
2 48776  87.9039 157.0063 0001379 115.4275   8.8215 13.15549754    16
ONEWEB-0247             
1 48777C 21045L   22333.59809442 -.00002199  00000-0 -58473-2 0  3333
2 48777  87.9052 157.0362 0001916 114.4120 303.0156 13.15549021    10
ONEWEB-0245             
1 48778C 21045M   22333.68420553 -.00002430  00000-0 -64617-2 0  3331
2 48778  87.9109 157.0890 0002030  89.4283  35.5532 13.15549781    17
ONEWEB-0229             
1 48779C 21045N   22333.27827961  .00001235  00000-0  32841-2 0  3335
2 48779  87.9106 157.1561 0001893 100.5335 293.1578 13.15550069    13
ONEWEB-0228             
1 48780C 21045P   22333.45258516  .00002971  00000-0  79009-2 0  3336
2 48780  87.9079 157.1093 0001508  98.1600 330.7590 13.15546657    14
ONEWEB-0232             
1 48781C 21045Q   22333.59566387 -.00002157  00000-0 -57369-2 0  3333
2 48781  87.8990 157.1041 0001835  86.0951 329.7655 13.15544200    19
ONEWEB-0231             
1 48782C 21045R   22333.66511988 -.00003954  00000-0 -10515-1 0  3336
2 48782  87.9086 157.0068 0001720 105.2698  19.3709 13.15556494    10
ONEWEB-0234             
1 48783C 21045S   22333.29218007  .00001838  00000-0  48879-2 0  3334
2 48783  87.9051 157.1434 0001946  81.7995 317.6121 13.15545121    16
ONEWEB-0238             
1 48784C 21045T   22333.38487683  .00003062  00000-0  81437-2 0  3331
2 48784  87.8984 157.1378 0001776  84.6396 338.4791 13.15543969    18
ONEWEB-0240             
1 48785C 21045U   22333.63245785 -.00004504  00000-0 -11982-1 0  3336
2 48785  87.9047 157.0609 0002163 102.0088 308.1651 13.15528734    12
ONEWEB-0246             
1 48786C 21045V   22333.47274720  .00000655  00000-0  17430-2 0  3336
2 48786  87.9039 157.0906 0001715 106.6018 287.5280 13.15548853    11
ONEWEB-0210             
1 48787C 21045W   22333.60331433 -.00002441  00000-0 -64933-2 0  3334
2 48787  87.9046 157.0760 0001485 126.5857 285.5307 13.15550694    18
ONEWEB-0214             
1 48788C 21045X   22333.70505044 -.00002646  00000-0 -70380-2 0  3337
2 48788  87.8976 157.0479 0001236 131.6761 352.0177 13.15545974    12
ONEWEB-0221             
1 48789C 21045Y   22333.31229581  .00001039  00000-0  27624-2 0  3330
2 48789  87.9039 157.1420 0001739 100.8147 293.9163 13.15545466    19
ONEWEB-0213             
1 48790C 21045Z   22333.69880044 -.00002355  00000-0 -62636-2 0  3336
2 48790  87.8986 157.0738 0001705 108.1446  15.8957 13.15547760    19
ONEWEB-0212             
1 48791C 21045AA  22333.67965692 -.00002699  00000-0 -71783-2 0  3332
2 48791  87.9007 157.1074 0001539  79.4219  44.0374 13.15554834    19
ONEWEB-0227             
1 48792C 21045AB  22333.73348794 -.00001733  00000-0 -46098-2 0  3337
2 48792  87.9008 157.1102 0001779  93.1752 315.1005 13.15553046    11
ONEWEB-0226             
1 48793C 21045AC  22333.66720322 -.00003796  00000-0 -10097-1 0  3331
2 48793  87.8982 157.0839 0001639 120.5832   3.9148 13.15549304    19
ONEWEB-0224             
1 48794C 21045AD  22333.61718007 -.00003631  00000-0 -96563-2 0  3335
2 48794  87.9033 157.0475 0001881  80.5932 327.1579 13.15548939    11
ONEWEB-0233             
1 48795C 21045AE  22333.31023561  .00001545  00000-0  40704-2 0  3333
2 48795  87.9103 157.1788 0001977  92.7722 324.4115 13.16191998    12
ONEWEB-0190             
1 48796C 21045AF  22333.30609211  .00001684  00000-0  44793-2 0  3331
2 48796  87.8993 157.1634 0002313 123.9685 291.3362 13.15542311    13
ONEWEB-0236             
1 48797C 21045AG  22333.47102266  .00000796  00000-0  21160-2 0  3334
2 48797  87.8985 157.0985 0001624  91.9397 304.0965 13.15544812    10
ONEWEB-0248             
1 48798C 21045AH  22333.48386988  .00001941  00000-0  51623-2 0  3331
2 48798  87.9050 157.1053 0002495 100.6470 296.0498 13.15549341    12
ONEWEB-0225             
1 48799C 21045AJ  22333.27618471  .00001040  00000-0  27660-2 0  3338
2 48799  87.8999 157.1744 0002108 107.3134 286.4333 13.15549737    13
ONEWEB-0215             
1 48800C 21045AK  22333.63039766 -.00004447  00000-0 -11828-1 0  3339
2 48800  87.9042 157.0672 0002511 110.6641 299.6598 13.15551172    18
ONEWEB-0216             
1 48801C 21045AL  22333.65676340 -.00004509  00000-0 -11991-1 0  3337
2 48801  87.8990 157.0994 0001253 101.4859  23.6240 13.15555054    10
ONEWEB-0239             
1 48802C 21045AM  22333.57097637 -.00003002  00000-0 -79833-2 0  3332
2 48802  87.8995 157.1225 0002522 106.4642 312.6339 13.15553435    10
ONEWEB-0249             
1 48967C 21060A   22333.54250414 -.00004208  00000-0 -11020-1 0  3334
2 48967  87.9033 126.7797 0001467  94.4657 315.6930 13.16596569    17
ONEWEB-0250             
1 48968C 21060B   22333.39183285  .00000530  00000-0  13885-2 0  3333
2 48968  87.9037 126.8151 0001919 102.3979 294.1279 13.16596069    17
ONEWEB-0252             
1 48970C 21060D   22333.35604582  .00002833  00000-0  74208-2 0  3334
2 48970  87.9052 126.8070 0001553 103.5265 353.3416 13.16594415    16
ONEWEB-0253             
1 48971C 21060E   22333.63903192 -.00002820  00000-0 -73861-2 0  3337
2 48971  87.9028 126.7557 0001790 110.2899 297.1114 13.16599667    14
ONEWEB-0254             
1 48972C 21060F   22333.34111525  .00003036  00000-0  79505-2 0  3336
2 48972  87.9053 126.7974 0001797 108.4429 287.7131 13.16593811    10
ONEWEB-0255             
1 48973C 21060G   22333.37934443  .00001627  00000-0  42613-2 0  3336
2 48973  87.9030 126.8592 0001590  98.5870 298.6594 13.16591333    14
ONEWEB-0256             
1 48974C 21060H   22333.65120785 -.00002763  00000-0 -72372-2 0  3333
2 48974  87.9026 126.7459 0001083  99.2486  25.8224 13.16597577    15
ONEWEB-0257             
1 48975C 21060J   22333.60849951 -.00002189  00000-0 -57336-2 0  3337
2 48975  87.9029 126.8018 0001432 106.3121  16.4305 13.16594851    13
ONEWEB-0258             
1 48976C 21060K   22333.61093007 -.00002196  00000-0 -57516-2 0  3330
2 48976  87.9035 126.8101 0001687  98.0978  26.2325 13.16596652    15
ONEWEB-0259             
1 48977C 21060L   22333.51473794 -.00002163  00000-0 -56637-2 0  3332
2 48977  87.9040 126.8080 0001948  99.3911 319.2736 13.16597321    14
ONEWEB-0260             
1 48978C 21060M   22333.59843007 -.00002514  00000-0 -65844-2 0  3339
2 48978  87.9029 126.7739 0000931 130.9758 354.0689 13.16598711    12
ONEWEB-0261             
1 48979C 21060N   22333.39462220  .00000391  00000-0  10235-2 0  3335
2 48979  87.9031 126.8262 0001520 112.8854 286.7908 13.16592666    17
ONEWEB-0262             
1 48980C 21060P   22333.31194859  .00002875  00000-0  75308-2 0  3330
2 48980  87.9042 126.8151 0002234 104.0280 354.0244 13.16588885    17
ONEWEB-0263             
1 48981C 21060Q   22333.40748099  .00000257  00000-0  67179-3 0  3332
2 48981  87.9057 126.7993 0002051 112.7164 287.8896 13.16598657    15
ONEWEB-0264             
1 48982C 21060R   22333.45190229 -.00000366  00000-0 -95871-3 0  3337
2 48982  87.9059 126.7627 0001578  99.7472 336.2664 13.16590223    14
ONEWEB-0266             
1 48984C 21060T   22333.38941387  .00000676  00000-0  17715-2 0  3332
2 48984  87.9043 126.8096 0001582  92.4411 302.5719 13.16594490    15
ONEWEB-0267             
1 48985C 21060U   22333.40018933  .00000249  00000-0  65171-3 0  3334
2 48985  87.9049 126.8051 0001613 118.8873 277.1378 13.16596303    16
ONEWEB-0268             
1 48986C 21060V   22333.61476109 -.00002309  00000-0 -60478-2 0  3336
2 48986  87.9042 126.7669 0001490  94.9666  27.4704 13.16591183    11
ONEWEB-0269             
1 48987C 21060W   22333.50641618 -.00003954  00000-0 -10354-1 0  3338
2 48987  87.9037 126.7991 0001387  96.5501 322.7587 13.16602919    15
